<?xml version="1.0" encoding="UTF-8"?>
<ndm xmlns:xsi="http://www.w3.org/2001/XMLSchema-instance" xsi:noNamespaceSchemaLocation="https://sanaregistry.org/r/ndmxml_unqualified/ndmxml-2.0.0-master-2.0.xsd">
<omm id="CCSDS_OMM_VERS" version="2.0">
<header><CREATION_DATE/><ORIGINATOR/></header><body><segment><metadata><OBJECT_NAME>IRIDIUM 921</OBJECT_NAME><OBJECT_ID>1997-034E</OBJECT_ID><CENTER_NAME>EARTH</CENTER_NAME><REF_FRAME>TEME</REF_FRAME><TIME_SYSTEM>UTC</TIME_SYSTEM><MEAN_ELEMENT_THEORY>SGP4</MEAN_ELEMENT_THEORY></metadata><data><meanElements><EPOCH>2024-09-12T22:36:16.685856</EPOCH><MEAN_MOTION>15.47767633</MEAN_MOTION><ECCENTRICITY>.0002874</ECCENTRICITY><INCLINATION>86.3740</INCLINATION><RA_OF_ASC_NODE>244.4033</RA_OF_ASC_NODE><ARG_OF_PERICENTER>141.7858</ARG_OF_PERICENTER><MEAN_ANOMALY>218.3605</MEAN_ANOMALY></meanElements><tleParameters><EPHEMERIS_TYPE>0</EPHEMERIS_TYPE><CLASSIFICATION_TYPE>U</CLASSIFICATION_TYPE><NORAD_CAT_ID>24873</NORAD_CAT_ID><ELEMENT_SET_NO>999</ELEMENT_SET_NO><REV_AT_EPOCH>48899</REV_AT_EPOCH><BSTAR>.20616E-2</BSTAR><MEAN_MOTION_DOT>.108106E-2</MEAN_MOTION_DOT><MEAN_MOTION_DDOT>0</MEAN_MOTION_DDOT></tleParameters></data></segment></body></omm>
<omm id="CCSDS_OMM_VERS" version="2.0">
<header><CREATION_DATE/><ORIGINATOR/></header><body><segment><metadata><OBJECT_NAME>IRIDIUM 22</OBJECT_NAME><OBJECT_ID>1997-043E</OBJECT_ID><CENTER_NAME>EARTH</CENTER_NAME><REF_FRAME>TEME</REF_FRAME><TIME_SYSTEM>UTC</TIME_SYSTEM><MEAN_ELEMENT_THEORY>SGP4</MEAN_ELEMENT_THEORY></metadata><data><meanElements><EPOCH>2024-09-12T22:40:09.623712</EPOCH><MEAN_MOTION>14.35456123</MEAN_MOTION><ECCENTRICITY>.0002378</ECCENTRICITY><INCLINATION>86.3952</INCLINATION><RA_OF_ASC_NODE>230.2238</RA_OF_ASC_NODE><ARG_OF_PERICENTER>89.2004</ARG_OF_PERICENTER><MEAN_ANOMALY>270.9465</MEAN_ANOMALY></meanElements><tleParameters><EPHEMERIS_TYPE>0</EPHEMERIS_TYPE><CLASSIFICATION_TYPE>U</CLASSIFICATION_TYPE><NORAD_CAT_ID>24907</NORAD_CAT_ID><ELEMENT_SET_NO>999</ELEMENT_SET_NO><REV_AT_EPOCH>41699</REV_AT_EPOCH><BSTAR>.7383E-3</BSTAR><MEAN_MOTION_DOT>.214E-4</MEAN_MOTION_DOT><MEAN_MOTION_DDOT>0</MEAN_MOTION_DDOT></tleParameters></data></segment></body></omm>
<omm id="CCSDS_OMM_VERS" version="2.0">
<header><CREATION_DATE/><ORIGINATOR/></header><body><segment><metadata><OBJECT_NAME>DUMMY MASS 2</OBJECT_NAME><OBJECT_ID>1997-048B</OBJECT_ID><CENTER_NAME>EARTH</CENTER_NAME><REF_FRAME>TEME</REF_FRAME><TIME_SYSTEM>UTC</TIME_SYSTEM><MEAN_ELEMENT_THEORY>SGP4</MEAN_ELEMENT_THEORY></metadata><data><meanElements><EPOCH>2024-09-12T15:09:47.826720</EPOCH><MEAN_MOTION>14.86171270</MEAN_MOTION><ECCENTRICITY>.0009803</ECCENTRICITY><INCLINATION>86.3288</INCLINATION><RA_OF_ASC_NODE>265.1249</RA_OF_ASC_NODE><ARG_OF_PERICENTER>68.7486</ARG_OF_PERICENTER><MEAN_ANOMALY>291.4785</MEAN_ANOMALY></meanElements><tleParameters><EPHEMERIS_TYPE>0</EPHEMERIS_TYPE><CLASSIFICATION_TYPE>U</CLASSIFICATION_TYPE><NORAD_CAT_ID>24926</NORAD_CAT_ID><ELEMENT_SET_NO>999</ELEMENT_SET_NO><REV_AT_EPOCH>46367</REV_AT_EPOCH><BSTAR>.22596E-3</BSTAR><MEAN_MOTION_DOT>.2011E-4</MEAN_MOTION_DOT><MEAN_MOTION_DDOT>0</MEAN_MOTION_DDOT></tleParameters></data></segment></body></omm>
<omm id="CCSDS_OMM_VERS" version="2.0">
<header><CREATION_DATE/><ORIGINATOR/></header><body><segment><metadata><OBJECT_NAME>IRIDIUM 29</OBJECT_NAME><OBJECT_ID>1997-051A</OBJECT_ID><CENTER_NAME>EARTH</CENTER_NAME><REF_FRAME>TEME</REF_FRAME><TIME_SYSTEM>UTC</TIME_SYSTEM><MEAN_ELEMENT_THEORY>SGP4</MEAN_ELEMENT_THEORY></metadata><data><meanElements><EPOCH>2024-09-12T22:04:39.556128</EPOCH><MEAN_MOTION>14.35900730</MEAN_MOTION><ECCENTRICITY>.0002522</ECCENTRICITY><INCLINATION>86.3897</INCLINATION><RA_OF_ASC_NODE>260.1033</RA_OF_ASC_NODE><ARG_OF_PERICENTER>90.2962</ARG_OF_PERICENTER><MEAN_ANOMALY>269.8523</MEAN_ANOMALY></meanElements><tleParameters><EPHEMERIS_TYPE>0</EPHEMERIS_TYPE><CLASSIFICATION_TYPE>U</CLASSIFICATION_TYPE><NORAD_CAT_ID>24944</NORAD_CAT_ID><ELEMENT_SET_NO>999</ELEMENT_SET_NO><REV_AT_EPOCH>41347</REV_AT_EPOCH><BSTAR>.66458E-3</BSTAR><MEAN_MOTION_DOT>.1945E-4</MEAN_MOTION_DOT><MEAN_MOTION_DDOT>0</MEAN_MOTION_DDOT></tleParameters></data></segment></body></omm>
<omm id="CCSDS_OMM_VERS" version="2.0">
<header><CREATION_DATE/><ORIGINATOR/></header><body><segment><metadata><OBJECT_NAME>IRIDIUM 33</OBJECT_NAME><OBJECT_ID>1997-051C</OBJECT_ID><CENTER_NAME>EARTH</CENTER_NAME><REF_FRAME>TEME</REF_FRAME><TIME_SYSTEM>UTC</TIME_SYSTEM><MEAN_ELEMENT_THEORY>SGP4</MEAN_ELEMENT_THEORY></metadata><data><meanElements><EPOCH>2024-09-12T18:01:36.679008</EPOCH><MEAN_MOTION>14.34504949</MEAN_MOTION><ECCENTRICITY>.0005704</ECCENTRICITY><INCLINATION>86.3811</INCLINATION><RA_OF_ASC_NODE>259.4206</RA_OF_ASC_NODE><ARG_OF_PERICENTER>261.5584</ARG_OF_PERICENTER><MEAN_ANOMALY>98.4966</MEAN_ANOMALY></meanElements><tleParameters><EPHEMERIS_TYPE>0</EPHEMERIS_TYPE><CLASSIFICATION_TYPE>U</CLASSIFICATION_TYPE><NORAD_CAT_ID>24946</NORAD_CAT_ID><ELEMENT_SET_NO>999</ELEMENT_SET_NO><REV_AT_EPOCH>41296</REV_AT_EPOCH><BSTAR>.58387E-3</BSTAR><MEAN_MOTION_DOT>.1665E-4</MEAN_MOTION_DOT><MEAN_MOTION_DDOT>0</MEAN_MOTION_DDOT></tleParameters></data></segment></body></omm>
<omm id="CCSDS_OMM_VERS" version="2.0">
<header><CREATION_DATE/><ORIGINATOR/></header><body><segment><metadata><OBJECT_NAME>IRIDIUM 28</OBJECT_NAME><OBJECT_ID>1997-051E</OBJECT_ID><CENTER_NAME>EARTH</CENTER_NAME><REF_FRAME>TEME</REF_FRAME><TIME_SYSTEM>UTC</TIME_SYSTEM><MEAN_ELEMENT_THEORY>SGP4</MEAN_ELEMENT_THEORY></metadata><data><meanElements><EPOCH>2024-09-12T22:26:40.225920</EPOCH><MEAN_MOTION>14.36855444</MEAN_MOTION><ECCENTRICITY>.0001851</ECCENTRICITY><INCLINATION>86.3905</INCLINATION><RA_OF_ASC_NODE>257.7680</RA_OF_ASC_NODE><ARG_OF_PERICENTER>89.9057</ARG_OF_PERICENTER><MEAN_ANOMALY>270.2352</MEAN_ANOMALY></meanElements><tleParameters><EPHEMERIS_TYPE>0</EPHEMERIS_TYPE><CLASSIFICATION_TYPE>U</CLASSIFICATION_TYPE><NORAD_CAT_ID>24948</NORAD_CAT_ID><ELEMENT_SET_NO>999</ELEMENT_SET_NO><REV_AT_EPOCH>41402</REV_AT_EPOCH><BSTAR>.63519E-3</BSTAR><MEAN_MOTION_DOT>.1895E-4</MEAN_MOTION_DOT><MEAN_MOTION_DDOT>0</MEAN_MOTION_DDOT></tleParameters></data></segment></body></omm>

</ndm>
