IRIDIUM 921             
1 24873U 97034E   24256.94185979  .00108106  00000+0  20616-2 0  9990
2 24873  86.3740 244.4033 0002874 141.7858 218.3605 15.47767633488711
IRIDIUM 22              
1 24907U 97043E   24256.94455583  .00002140  00000+0  73830-3 0  9997
2 24907  86.3952 230.2238 0002378  89.2004 270.9465 14.35456123416996
DUMMY MASS 2            
1 24926U 97048B   24256.63180355  .00002011  00000+0  22596-3 0  9991
2 24926  86.3288 265.1249 0009803  68.7486 291.4785 14.86171270463677
IRIDIUM 29              
1 24944U 97051A   24256.91990227  .00001945  00000+0  66458-3 0  9993
2 24944  86.3897 260.1033 0002522  90.2962 269.8523 14.35900730413476
IRIDIUM 33              
1 24946U 97051C   24256.75111897  .00001665  00000+0  58387-3 0  9996
2 24946  86.3811 259.4206 0005704 261.5584  98.4966 14.34504949412966
IRIDIUM 28              
1 24948U 97051E   24256.93518780  .00001895  00000+0  63519-3 0  9998
2 24948  86.3905 257.7680 0001851  89.9057 270.2352 14.36855444414024
